{
  "type": "FeatureCollection",
  "features": [
    {
      "type": "Feature",
      "properties": {
        "road_class": "major",
        "name": "Synthetic Main Road"
      },
      "geometry": {
        "type": "LineString",
        "coordinates": [
          [-0.0040, -0.0030],
          [-0.0015, -0.0010],
          [0.0000, 0.0000],
          [0.0020, 0.0015],
          [0.0040, 0.0030]
        ]
      }
    },
    {
      "type": "Feature",
      "properties": {
        "road_class": "minor",
        "name": "Synthetic Cross Road"
      },
      "geometry": {
        "type": "LineString",
        "coordinates": [
          [-0.0030, 0.0025],
          [-0.0010, 0.0010],
          [0.0000, 0.0000],
          [0.0015, -0.0015],
          [0.0030, -0.0030]
        ]
      }
    }
  ]
}
